STARLINK-31308          
1 59153U 24044B   26068.01372359  .00000726  00000+0  35921-4 0  9997
2 59153  43.0032  64.0106 0001482 280.6696  79.3989 15.27567770114048
KUIPER-00204            
1 67145U 25301N   26068.39760395  .00020516  00000+0  79568-3 0  9999
2 67145  51.8870  71.6415 0003071 354.8934   5.2016 15.26088400 13737
